0 TRANSIT 5B-2 DEB
1 25156U 63049N   13282.08084770  .00000549  00000-0  81321-3 0  9492
2 25156 089.9547 109.9291 0040892 191.7517 316.8862 13.52364197772188
0 TRANSIT 5B-2 DEB
1 25156U 63049N   13287.16517134  .00000574  00000-0  85043-3 0  9517
2 25156 089.9543 109.9064 0041323 177.1075 229.8999 13.52369851772871
0 TRANSIT 5B-2 DEB
1 25156U 63049N   13289.53584332  .00000625  00000-0  92773-3 0  9520
2 25156 089.9544 109.8957 0041510 170.3429 251.4878 13.52374144773192
0 TRANSIT 5B-2 DEB
1 25156U 63049N   13291.83051081  .00000654  00000-0  97133-3 0  9534
2 25156 089.9547 109.8855 0041650 163.8402 263.0329 13.52376323773501
0 TRANSIT 5B-2 DEB
1 25156U 63049N   13294.13194789  .00000678  00000-0  10069-2 0  9542
2 25156 089.9548 109.8751 0041804 157.3316 307.5445 13.52379492773817
